start=new Date('2021-08-30T00:00:00.000Z').valueOf();
sats=[{"FILE":"3105271","DECAY_DATE":null,"BSTAR":"0.00011657000000","MEAN_MOTION_DDOT":"0.0000000000000","INCLINATION":"53.0554","RCS_SIZE":"LARGE","APOAPSIS":"547.991","ARG_OF_PERICENTER":"104.7084","OBJECT_ID":"2020-055AR","RA_OF_ASC_NODE":"317.3050","ELEMENT_SET_NO":"999","PERIOD":"95.592","MEAN_MOTION":"15.06406547","COUNTRY_CODE":"US","SITE":"AFETR","TLE_LINE1":"1 46066U 20055AR  21241.67266000  .00001456  00000-0  11657-3 0  9990","MEAN_ANOMALY":"255.4033","MEAN_MOTION_DOT":"0.00001456","EPHEMERIS_TYPE":"0","OBJECT_NAME":"STARLINK-1525","TLE_LINE2":"2 46066  53.0554 317.3050 0001151 104.7084 255.4033 15.06406547 60159","EPOCH":"2021-08-29T16:08:37.824000","GP_ID":"183698180","LAUNCH_DATE":"2020-08-07","SEMIMAJOR_AXIS":"6925.328","MEAN_ELEMENT_THEORY":"SGP4","REV_AT_EPOCH":"6015","PERIAPSIS":"546.396","NORAD_CAT_ID":"46066","TIME_SYSTEM":"UTC","REF_FRAME":"TEME","CLASSIFICATION_TYPE":"U","CENTER_NAME":"EARTH","OBJECT_TYPE":"PAYLOAD","ECCENTRICITY":"0.00011510"},{"OBJECT_NAME":"STARLINK-1529","EPOCH":"2021-08-29T16:13:56.708256","TLE_LINE2":"2 46067  53.0549 317.2951 0001130 105.7852 254.3262 15.06404280 60169","GP_ID":"183697930","TLE_LINE1":"1 46067U 20055AS  21241.67635079  .00000718  00000-0  67065-4 0  9992","MEAN_ANOMALY":"254.3262","MEAN_MOTION_DOT":"0.00000718","EPHEMERIS_TYPE":"0","CLASSIFICATION_TYPE":"U","CENTER_NAME":"EARTH","OBJECT_TYPE":"PAYLOAD","ECCENTRICITY":"0.00011300","LAUNCH_DATE":"2020-08-07","SEMIMAJOR_AXIS":"6925.335","REV_AT_EPOCH":"6016","MEAN_ELEMENT_THEORY":"SGP4","PERIAPSIS":"546.418","NORAD_CAT_ID":"46067","TIME_SYSTEM":"UTC","REF_FRAME":"TEME","INCLINATION":"53.0549","RCS_SIZE":"LARGE","APOAPSIS":"547.983","ARG_OF_PERICENTER":"105.7852","FILE":"3105271","DECAY_DATE":null,"BSTAR":"0.00006706500000","MEAN_MOTION_DDOT":"0.0000000000000","PERIOD":"95.592","COUNTRY_CODE":"US","MEAN_MOTION":"15.06404280","SITE":"AFETR","RA_OF_ASC_NODE":"317.2951","OBJECT_ID":"2020-055AS","ELEMENT_SET_NO":"999"},{"ARG_OF_PERICENTER":"109.8219","RCS_SIZE":"LARGE","APOAPSIS":"547.824","INCLINATION":"53.0534","MEAN_MOTION_DDOT":"0.0000000000000","BSTAR":"0.00008384500000","DECAY_DATE":null,"FILE":"3105271","SITE":"AFETR","COUNTRY_CODE":"US","MEAN_MOTION":"15.06407613","PERIOD":"95.592","ELEMENT_SET_NO":"999","RA_OF_ASC_NODE":"317.2478","OBJECT_ID":"2020-055AT","TLE_LINE2":"2 46068  53.0534 317.2478 0000915 109.8219 250.2869 15.06407613 60161","EPOCH":"2021-08-29T16:29:51.766944","GP_ID":"183699182","OBJECT_NAME":"STARLINK-1532","EPHEMERIS_TYPE":"0","MEAN_ANOMALY":"250.2869","MEAN_MOTION_DOT":"0.00000968","TLE_LINE1":"1 46068U 20055AT  21241.68740471  .00000968  00000-0  83845-4 0  9998","ECCENTRICITY":"0.00009150","OBJECT_TYPE":"PAYLOAD","CENTER_NAME":"EARTH","CLASSIFICATION_TYPE":"U","REF_FRAME":"TEME","NORAD_CAT_ID":"46068","TIME_SYSTEM":"UTC","PERIAPSIS":"546.557","MEAN_ELEMENT_THEORY":"SGP4","REV_AT_EPOCH":"6016","SEMIMAJOR_AXIS":"6925.325","LAUNCH_DATE":"2020-08-07"},{"TLE_LINE1":"1 46069U 20055AU  21241.90120396 -.00000896  00000-0 -41289-4 0  9990","MEAN_ANOMALY":"274.8397","MEAN_MOTION_DOT":"-0.00000896","EPHEMERIS_TYPE":"0","OBJECT_NAME":"STARLINK-1533","TLE_LINE2":"2 46069  53.0543 316.2851 0001272  85.2738 274.8397 15.06398834 60203","EPOCH":"2021-08-29T21:37:44.022144","GP_ID":"183698932","SEMIMAJOR_AXIS":"6925.352","LAUNCH_DATE":"2020-08-07","MEAN_ELEMENT_THEORY":"SGP4","REV_AT_EPOCH":"6020","TIME_SYSTEM":"UTC","NORAD_CAT_ID":"46069","PERIAPSIS":"546.336","REF_FRAME":"TEME","CENTER_NAME":"EARTH","CLASSIFICATION_TYPE":"U","OBJECT_TYPE":"PAYLOAD","ECCENTRICITY":"0.00012720","FILE":"3105271","BSTAR":"-0.00004128900000","DECAY_DATE":null,"MEAN_MOTION_DDOT":"0.0000000000000","INCLINATION":"53.0543","RCS_SIZE":"LARGE","APOAPSIS":"548.098","ARG_OF_PERICENTER":"85.2738","OBJECT_ID":"2020-055AU","RA_OF_ASC_NODE":"316.2851","ELEMENT_SET_NO":"999","PERIOD":"95.592","COUNTRY_CODE":"US","MEAN_MOTION":"15.06398834","SITE":"AFETR"},{"ELEMENT_SET_NO":"999","OBJECT_ID":"2020-055AV","RA_OF_ASC_NODE":"316.2190","SITE":"AFETR","MEAN_MOTION":"15.06395665","COUNTRY_CODE":"US","PERIOD":"95.592","MEAN_MOTION_DDOT":"0.0000000000000","BSTAR":"-0.00003292800000","DECAY_DATE":null,"FILE":"3105271","ARG_OF_PERICENTER":"94.4565","APOAPSIS":"547.885","RCS_SIZE":"LARGE","INCLINATION":"53.0542","REF_FRAME":"TEME","NORAD_CAT_ID":"46070","TIME_SYSTEM":"UTC","PERIAPSIS":"546.569","MEAN_ELEMENT_THEORY":"SGP4","REV_AT_EPOCH":"6020","SEMIMAJOR_AXIS":"6925.362","LAUNCH_DATE":"2020-08-07","ECCENTRICITY":"0.00009500","OBJECT_TYPE":"PAYLOAD","CENTER_NAME":"EARTH","CLASSIFICATION_TYPE":"U","EPHEMERIS_TYPE":"0","MEAN_MOTION_DOT":"-0.00000772","MEAN_ANOMALY":"265.6533","TLE_LINE1":"1 46070U 20055AV  21241.91594902 -.00000772  00000-0 -32928-4 0  9994","TLE_LINE2":"2 46070  53.0542 316.2190 0000950  94.4565 265.6533 15.06395665 60201","GP_ID":"183697680","EPOCH":"2021-08-29T21:58:57.995328","OBJECT_NAME":"STARLINK-1536"},{"RCS_SIZE":"LARGE","APOAPSIS":"547.995","INCLINATION":"53.0547","ARG_OF_PERICENTER":"113.3146","DECAY_DATE":null,"BSTAR":"0.00016922000000","FILE":"3105271","MEAN_MOTION_DDOT":"0.0000000000000","MEAN_MOTION":"15.06405664","COUNTRY_CODE":"US","PERIOD":"95.592","SITE":"AFETR","ELEMENT_SET_NO":"999","OBJECT_ID":"2020-055AW","RA_OF_ASC_NODE":"317.0288","OBJECT_NAME":"STARLINK-1538","GP_ID":"183698431","TLE_LINE2":"2 46071  53.0547 317.0288 0001154 113.3146 246.7965 15.06405664 60173","EPOCH":"2021-08-29T17:38:52.053216","TLE_LINE1":"1 46071U 20055AW  21241.73532469  .00002240  00000-0  16922-3 0  9990","EPHEMERIS_TYPE":"0","MEAN_ANOMALY":"246.7965","MEAN_MOTION_DOT":"0.00002240","OBJECT_TYPE":"PAYLOAD","CLASSIFICATION_TYPE":"U","CENTER_NAME":"EARTH","ECCENTRICITY":"0.00011540","REV_AT_EPOCH":"6017","MEAN_ELEMENT_THEORY":"SGP4","LAUNCH_DATE":"2020-08-07","SEMIMAJOR_AXIS":"6925.331","REF_FRAME":"TEME","PERIAPSIS":"546.397","NORAD_CAT_ID":"46071","TIME_SYSTEM":"UTC"},{"ECCENTRICITY":"0.00007930","CLASSIFICATION_TYPE":"U","CENTER_NAME":"EARTH","OBJECT_TYPE":"PAYLOAD","PERIAPSIS":"546.637","NORAD_CAT_ID":"46072","TIME_SYSTEM":"UTC","REF_FRAME":"TEME","LAUNCH_DATE":"2020-08-07","SEMIMAJOR_AXIS":"6925.322","REV_AT_EPOCH":"6012","MEAN_ELEMENT_THEORY":"SGP4","TLE_LINE2":"2 46072  53.0542 318.0952 0000793 129.8176 230.2883 15.06408788 60123","EPOCH":"2021-08-29T11:52:29.613216","GP_ID":"183670544","OBJECT_NAME":"STARLINK-1539","MEAN_ANOMALY":"230.2883","MEAN_MOTION_DOT":"0.00002711","EPHEMERIS_TYPE":"0","TLE_LINE1":"1 46072U 20055AX  21241.49478719  .00002711  00000-0  20074-3 0  9997","SITE":"AFETR","PERIOD":"95.592","COUNTRY_CODE":"US","MEAN_MOTION":"15.06408788","OBJECT_ID":"2020-055AX","RA_OF_ASC_NODE":"318.0952","ELEMENT_SET_NO":"999","ARG_OF_PERICENTER":"129.8176","INCLINATION":"53.0542","RCS_SIZE":"LARGE","APOAPSIS":"547.736","MEAN_MOTION_DDOT":"0.0000000000000","FILE":"3105060","DECAY_DATE":null,"BSTAR":"0.00020074000000"},{"MEAN_MOTION_DDOT":"0.0000000000000","FILE":"3105271","DECAY_DATE":null,"BSTAR":"-0.00009803900000","ARG_OF_PERICENTER":"106.5570","INCLINATION":"53.0556","APOAPSIS":"548.131","RCS_SIZE":"LARGE","OBJECT_ID":"2020-055AY","RA_OF_ASC_NODE":"316.2480","ELEMENT_SET_NO":"999","SITE":"AFETR","PERIOD":"95.593","MEAN_MOTION":"15.06389893","COUNTRY_CODE":"US","MEAN_MOTION_DOT":"-0.00001741","MEAN_ANOMALY":"253.5559","EPHEMERIS_TYPE":"0","TLE_LINE1":"1 46073U 20055AY  21241.90857056 -.00001741  00000-0 -98039-4 0  9990","EPOCH":"2021-08-29T21:48:20.496384","TLE_LINE2":"2 46073  53.0556 316.2480 0001280 106.5570 253.5559 15.06389893 60197","GP_ID":"183699433","OBJECT_NAME":"STARLINK-1542","PERIAPSIS":"546.358","NORAD_CAT_ID":"46073","TIME_SYSTEM":"UTC","REF_FRAME":"TEME","LAUNCH_DATE":"2020-08-07","SEMIMAJOR_AXIS":"6925.380","MEAN_ELEMENT_THEORY":"SGP4","REV_AT_EPOCH":"6019","ECCENTRICITY":"0.00012800","CLASSIFICATION_TYPE":"U","CENTER_NAME":"EARTH","OBJECT_TYPE":"PAYLOAD"},{"PERIOD":"95.591","MEAN_MOTION":"15.06412073","COUNTRY_CODE":"US","SITE":"AFETR","RA_OF_ASC_NODE":"317.2109","OBJECT_ID":"2020-055AZ","ELEMENT_SET_NO":"999","INCLINATION":"53.0537","APOAPSIS":"547.797","RCS_SIZE":"LARGE","ARG_OF_PERICENTER":"114.4544","FILE":"3105271","DECAY_DATE":null,"BSTAR":"0.00015673000000","MEAN_MOTION_DDOT":"0.0000000000000","CLASSIFICATION_TYPE":"U","CENTER_NAME":"EARTH","OBJECT_TYPE":"PAYLOAD","ECCENTRICITY":"0.00008960","LAUNCH_DATE":"2020-08-07","SEMIMAJOR_AXIS":"6925.312","MEAN_ELEMENT_THEORY":"SGP4","REV_AT_EPOCH":"6015","PERIAPSIS":"546.556","NORAD_CAT_ID":"46074","TIME_SYSTEM":"UTC","REF_FRAME":"TEME","OBJECT_NAME":"STARLINK-1549","GP_ID":"183698181","TLE_LINE2":"2 46074  53.0537 317.2109 0000896 114.4544 245.6538 15.06412073 60159","EPOCH":"2021-08-29T16:40:28.864128","TLE_LINE1":"1 46074U 20055AZ  21241.69477852  .00002055  00000-0  15673-3 0  9998","MEAN_MOTION_DOT":"0.00002055","MEAN_ANOMALY":"245.6538","EPHEMERIS_TYPE":"0"},{"ELEMENT_SET_NO":"999","OBJECT_ID":"2020-055BA","RA_OF_ASC_NODE":"317.0953","SITE":"AFETR","MEAN_MOTION":"15.06411034","COUNTRY_CODE":"US","PERIOD":"95.591","MEAN_MOTION_DDOT":"0.0000000000000","BSTAR":"0.00018949000000","DECAY_DATE":null,"FILE":"3105271","ARG_OF_PERICENTER":"106.3464","APOAPSIS":"547.858","RCS_SIZE":"LARGE","INCLINATION":"53.0551","REF_FRAME":"TEME","TIME_SYSTEM":"UTC","NORAD_CAT_ID":"46075","PERIAPSIS":"546.501","MEAN_ELEMENT_THEORY":"SGP4","REV_AT_EPOCH":"6016","SEMIMAJOR_AXIS":"6925.315","LAUNCH_DATE":"2020-08-07","ECCENTRICITY":"0.00009800","OBJECT_TYPE":"PAYLOAD","CENTER_NAME":"EARTH","CLASSIFICATION_TYPE":"U","EPHEMERIS_TYPE":"0","MEAN_ANOMALY":"253.7632","MEAN_MOTION_DOT":"0.00002543","TLE_LINE1":"1 46075U 20055BA  21241.72058143  .00002543  00000-0  18949-3 0  9992","GP_ID":"183697931","TLE_LINE2":"2 46075  53.0551 317.0953 0000980 106.3464 253.7632 15.06411034 60168","EPOCH":"2021-08-29T17:17:38.235552","OBJECT_NAME":"STARLINK-1551"}];
